{
  "type": "FeatureCollection",
  "features": [
    {
      "type": "Feature",
      "properties": {
        "norad_id": 34924,
        "name": "COSMOS 2251 DEB",
        "group": "cosmos-2251-debris",
        "lat": 62.77231404088105,
        "lon": 115.14098475414606,
        "alt_km": 691.1076856152631,
        "timestamp": "2025-12-16T23:36:36.593554+00:00",
        "meta_object_name": "COSMOS 2251 DEB",
        "meta_object_id": "1993-036ADV",
        "meta_epoch": "2025-12-15T23:11:46.077792",
        "meta_mean_motion": 14.60064145,
        "meta_eccentricity": 0.00541137,
        "meta_inclination": 74.0411,
        "meta_ra_of_asc_node": 83.2915,
        "meta_arg_of_pericenter": 167.1484,
        "meta_mean_anomaly": 316.438,
        "meta_ephemeris_type": 0,
        "meta_classification_type": "U",
        "meta_norad_cat_id": 34924,
        "meta_element_set_no": 999,
        "meta_rev_at_epoch": 87770,
        "meta_bstar": 0.00064984297,
        "meta_mean_motion_dot": 3.158e-05,
        "meta_mean_motion_ddot": 0,
        "tle_line1": "1 34924U 93036ADV 25349.96650553  .00003158  00000+0  64984-3 0  9995",
        "tle_line2": "2 34924  74.0411  83.2915 0054113 167.1484 316.4380 14.60064145877709"
      },
      "geometry": {
        "type": "Point",
        "coordinates": [
          115.14098475414606,
          62.77231404088105
        ]
      }
    },
    {
      "type": "Feature",
      "properties": {
        "norad_id": 34944,
        "name": "COSMOS 2251 DEB",
        "group": "cosmos-2251-debris",
        "lat": -15.564852850481584,
        "lon": 49.04755351808094,
        "alt_km": 937.234258311254,
        "timestamp": "2025-12-16T23:36:36.593564+00:00",
        "meta_object_name": "COSMOS 2251 DEB",
        "meta_object_id": "1993-036ADX",
        "meta_epoch": "2025-12-07T09:30:46.029312",
        "meta_mean_motion": 14.14167925,
        "meta_eccentricity": 0.02195348,
        "meta_inclination": 73.7495,
        "meta_ra_of_asc_node": 241.6775,
        "meta_arg_of_pericenter": 90.2413,
        "meta_mean_anomaly": 272.3884,
        "meta_ephemeris_type": 0,
        "meta_classification_type": "U",
        "meta_norad_cat_id": 34944,
        "meta_element_set_no": 999,
        "meta_rev_at_epoch": 64007,
        "meta_bstar": 0.00099492053,
        "meta_mean_motion_dot": 2.364e-05,
        "meta_mean_motion_ddot": 0,
        "tle_line1": "1 34944U 93036ADX 25341.39636608  .00002364  00000+0  99492-3 0  9991",
        "tle_line2": "2 34944  73.7495 241.6775 0219534  90.2413 272.3884 14.14167925640077"
      },
      "geometry": {
        "type": "Point",
        "coordinates": [
          49.04755351808094,
          -15.564852850481584
        ]
      }
    },
    {
      "type": "Feature",
      "properties": {
        "norad_id": 34946,
        "name": "COSMOS 2251 DEB",
        "group": "cosmos-2251-debris",
        "lat": -54.01339801821938,
        "lon": -49.24806234879179,
        "alt_km": 726.8140135976946,
        "timestamp": "2025-12-16T23:36:36.593574+00:00",
        "meta_object_name": "COSMOS 2251 DEB",
        "meta_object_id": "1993-036ADZ",
        "meta_epoch": "2025-12-11T09:12:32.820480",
        "meta_mean_motion": 14.61985522,
        "meta_eccentricity": 0.0048688,
        "meta_inclination": 74.0237,
        "meta_ra_of_asc_node": 344.7115,
        "meta_arg_of_pericenter": 122.3418,
        "meta_mean_anomaly": 238.2476,
        "meta_ephemeris_type": 0,
        "meta_classification_type": "U",
        "meta_norad_cat_id": 34946,
        "meta_element_set_no": 999,
        "meta_rev_at_epoch": 88189,
        "meta_bstar": 0.00095647955,
        "meta_mean_motion_dot": 4.849e-05,
        "meta_mean_motion_ddot": 0,
        "tle_line1": "1 34946U 93036ADZ 25345.38371320  .00004849  00000+0  95648-3 0  9992",
        "tle_line2": "2 34946  74.0237 344.7115 0048688 122.3418 238.2476 14.61985522881890"
      },
      "geometry": {
        "type": "Point",
        "coordinates": [
          -49.24806234879179,
          -54.01339801821938
        ]
      }
    },
    {
      "type": "Feature",
      "properties": {
        "norad_id": 34949,
        "name": "COSMOS 2251 DEB",
        "group": "cosmos-2251-debris",
        "lat": 23.271747805470753,
        "lon": 108.44668950755742,
        "alt_km": 689.5710330842103,
        "timestamp": "2025-12-16T23:36:36.593584+00:00",
        "meta_object_name": "COSMOS 2251 DEB",
        "meta_object_id": "1993-036AEC",
        "meta_epoch": "2025-12-16T00:41:42.487008",
        "meta_mean_motion": 14.74023339,
        "meta_eccentricity": 0.00802648,
        "meta_inclination": 74.0185,
        "meta_ra_of_asc_node": 103.231,
        "meta_arg_of_pericenter": 247.8557,
        "meta_mean_anomaly": 111.4083,
        "meta_ephemeris_type": 0,
        "meta_classification_type": "U",
        "meta_norad_cat_id": 34949,
        "meta_element_set_no": 999,
        "meta_rev_at_epoch": 88410,
        "meta_bstar": 0.00040106171,
        "meta_mean_motion_dot": 2.742e-05,
        "meta_mean_motion_ddot": 0,
        "tle_line1": "1 34949U 93036AEC 25350.02896397  .00002742  00000+0  40106-3 0  9997",
        "tle_line2": "2 34949  74.0185 103.2310 0080264 247.8557 111.4083 14.74023339884109"
      },
      "geometry": {
        "type": "Point",
        "coordinates": [
          108.44668950755742,
          23.271747805470753
        ]
      }
    },
    {
      "type": "Feature",
      "properties": {
        "norad_id": 34953,
        "name": "COSMOS 2251 DEB",
        "group": "cosmos-2251-debris",
        "lat": -70.49164350181609,
        "lon": -34.30038851277108,
        "alt_km": 670.0215614746239,
        "timestamp": "2025-12-16T23:36:36.593594+00:00",
        "meta_object_name": "COSMOS 2251 DEB",
        "meta_object_id": "1993-036AEG",
        "meta_epoch": "2025-12-15T20:58:44.435424",
        "meta_mean_motion": 14.68987416,
        "meta_eccentricity": 0.00581924,
        "meta_inclination": 74.0933,
        "meta_ra_of_asc_node": 21.443,
        "meta_arg_of_pericenter": 12.5608,
        "meta_mean_anomaly": 163.8642,
        "meta_ephemeris_type": 0,
        "meta_classification_type": "U",
        "meta_norad_cat_id": 34953,
        "meta_element_set_no": 999,
        "meta_rev_at_epoch": 88174,
        "meta_bstar": 0.0005270651,
        "meta_mean_motion_dot": 3.138e-05,
        "meta_mean_motion_ddot": 0,
        "tle_line1": "1 34953U 93036AEG 25349.87412541  .00003138  00000+0  52707-3 0  9998",
        "tle_line2": "2 34953  74.0933  21.4430 0058192  12.5608 163.8642 14.68987416881745"
      },
      "geometry": {
        "type": "Point",
        "coordinates": [
          -34.30038851277108,
          -70.49164350181609
        ]
      }
    },
    {
      "type": "Feature",
      "properties": {
        "norad_id": 34955,
        "name": "COSMOS 2251 DEB",
        "group": "cosmos-2251-debris",
        "lat": 1.7322470804775345,
        "lon": 57.38002566905499,
        "alt_km": 600.2747441426318,
        "timestamp": "2025-12-16T23:36:36.593604+00:00",
        "meta_object_name": "COSMOS 2251 DEB",
        "meta_object_id": "1993-036AEJ",
        "meta_epoch": "2025-12-11T10:00:38.398176",
        "meta_mean_motion": 15.00495775,
        "meta_eccentricity": 0.00779991,
        "meta_inclination": 74.0375,
        "meta_ra_of_asc_node": 249.1952,
        "meta_arg_of_pericenter": 319.1032,
        "meta_mean_anomaly": 40.4318,
        "meta_ephemeris_type": 0,
        "meta_classification_type": "U",
        "meta_norad_cat_id": 34955,
        "meta_element_set_no": 999,
        "meta_rev_at_epoch": 90014,
        "meta_bstar": 0.0014966224,
        "meta_mean_motion_dot": 0.00020131,
        "meta_mean_motion_ddot": 0,
        "tle_line1": "1 34955U 93036AEJ 25345.41711109  .00020131  00000+0  14966-2 0  9994",
        "tle_line2": "2 34955  74.0375 249.1952 0077999 319.1032  40.4318 15.00495775900143"
      },
      "geometry": {
        "type": "Point",
        "coordinates": [
          57.38002566905499,
          1.7322470804775345
        ]
      }
    },
    {
      "type": "Feature",
      "properties": {
        "norad_id": 34962,
        "name": "COSMOS 2251 DEB",
        "group": "cosmos-2251-debris",
        "lat": -40.763688886332965,
        "lon": 19.73028236395164,
        "alt_km": 739.8332812909321,
        "timestamp": "2025-12-16T23:36:36.593614+00:00",
        "meta_object_name": "COSMOS 2251 DEB",
        "meta_object_id": "1993-036AER",
        "meta_epoch": "2025-12-15T23:20:40.870464",
        "meta_mean_motion": 14.46527003,
        "meta_eccentricity": 0.00187854,
        "meta_inclination": 74.0291,
        "meta_ra_of_asc_node": 187.3252,
        "meta_arg_of_pericenter": 300.3477,
        "meta_mean_anomaly": 59.5823,
        "meta_ephemeris_type": 0,
        "meta_classification_type": "U",
        "meta_norad_cat_id": 34962,
        "meta_element_set_no": 999,
        "meta_rev_at_epoch": 87625,
        "meta_bstar": 0.00032377424,
        "meta_mean_motion_dot": 1.141e-05,
        "meta_mean_motion_ddot": 0,
        "tle_line1": "1 34962U 93036AER 25349.97269526  .00001141  00000+0  32377-3 0  9995",
        "tle_line2": "2 34962  74.0291 187.3252 0018785 300.3477  59.5823 14.46527003876252"
      },
      "geometry": {
        "type": "Point",
        "coordinates": [
          19.73028236395164,
          -40.763688886332965
        ]
      }
    }
  ]
}